[{"OBJECT_NAME":"HULIANWANG DIGUI-65","OBJECT_ID":"2025-174H","EPOCH":"2026-03-26T12:37:15.910176","MEAN_MOTION":13.24413228,"ECCENTRICITY":0.00015,"INCLINATION":86.4818,"RA_OF_ASC_NODE":279.8065,"ARG_OF_PERICENTER":100.5436,"MEAN_ANOMALY":259.5867,"EPHEMERIS_TYPE":0,"CLASSIFICATION_TYPE":"U","NORAD_CAT_ID":65171,"ELEMENT_SET_NO":999,"REV_AT_EPOCH":2984,"BSTAR":2.6548e-5,"MEAN_MOTION_DOT":2.6e-7,"MEAN_MOTION_DDOT":0},{"OBJECT_NAME":"HULIANWANG DIGUI-66","OBJECT_ID":"2025-174J","EPOCH":"2026-03-26T12:26:25.541952","MEAN_MOTION":13.24413741,"ECCENTRICITY":0.0001595,"INCLINATION":86.4854,"RA_OF_ASC_NODE":279.8824,"ARG_OF_PERICENTER":99.729,"MEAN_ANOMALY":260.4024,"EPHEMERIS_TYPE":0,"CLASSIFICATION_TYPE":"U","NORAD_CAT_ID":65172,"ELEMENT_SET_NO":999,"REV_AT_EPOCH":2984,"BSTAR":0.00019039,"MEAN_MOTION_DOT":9.6e-7,"MEAN_MOTION_DDOT":0},{"OBJECT_NAME":"HULIANWANG DIGUI-67","OBJECT_ID":"2025-174K","EPOCH":"2026-03-26T12:48:14.356800","MEAN_MOTION":13.24412885,"ECCENTRICITY":0.0001547,"INCLINATION":86.4865,"RA_OF_ASC_NODE":279.9133,"ARG_OF_PERICENTER":99.5522,"MEAN_ANOMALY":260.5787,"EPHEMERIS_TYPE":0,"CLASSIFICATION_TYPE":"U","NORAD_CAT_ID":65173,"ELEMENT_SET_NO":999,"REV_AT_EPOCH":2981,"BSTAR":7.2291e-5,"MEAN_MOTION_DOT":4.6e-7,"MEAN_MOTION_DDOT":0},{"OBJECT_NAME":"HULIANWANG DIGUI-68","OBJECT_ID":"2025-178A","EPOCH":"2026-03-26T11:31:53.371776","MEAN_MOTION":13.24408783,"ECCENTRICITY":0.0001978,"INCLINATION":86.4982,"RA_OF_ASC_NODE":41.4248,"ARG_OF_PERICENTER":72.0824,"MEAN_ANOMALY":288.0526,"EPHEMERIS_TYPE":0,"CLASSIFICATION_TYPE":"U","NORAD_CAT_ID":65228,"ELEMENT_SET_NO":999,"REV_AT_EPOCH":2936,"BSTAR":4.2696e-5,"MEAN_MOTION_DOT":3.3e-7,"MEAN_MOTION_DDOT":0},{"OBJECT_NAME":"HULIANWANG DIGUI-69","OBJECT_ID":"2025-178B","EPOCH":"2026-03-26T11:21:31.142304","MEAN_MOTION":13.2441158,"ECCENTRICITY":0.0001919,"INCLINATION":86.5002,"RA_OF_ASC_NODE":41.4663,"ARG_OF_PERICENTER":74.631,"MEAN_ANOMALY":285.5036,"EPHEMERIS_TYPE":0,"CLASSIFICATION_TYPE":"U","NORAD_CAT_ID":65229,"ELEMENT_SET_NO":999,"REV_AT_EPOCH":2936,"BSTAR":7.1479e-5,"MEAN_MOTION_DOT":4.5e-7,"MEAN_MOTION_DDOT":0},{"OBJECT_NAME":"HULIANWANG DIGUI-70","OBJECT_ID":"2025-178C","EPOCH":"2026-03-26T12:59:21.350112","MEAN_MOTION":13.2441111,"ECCENTRICITY":0.0001966,"INCLINATION":86.4941,"RA_OF_ASC_NODE":41.2998,"ARG_OF_PERICENTER":71.3464,"MEAN_ANOMALY":288.7884,"EPHEMERIS_TYPE":0,"CLASSIFICATION_TYPE":"U","NORAD_CAT_ID":65230,"ELEMENT_SET_NO":999,"REV_AT_EPOCH":2937,"BSTAR":0.00011087,"MEAN_MOTION_DOT":6.2e-7,"MEAN_MOTION_DDOT":0},{"OBJECT_NAME":"HULIANWANG DIGUI-71","OBJECT_ID":"2025-178D","EPOCH":"2026-03-26T12:48:25.913664","MEAN_MOTION":13.24410809,"ECCENTRICITY":0.000196,"INCLINATION":86.5,"RA_OF_ASC_NODE":41.4284,"ARG_OF_PERICENTER":72.0582,"MEAN_ANOMALY":288.0766,"EPHEMERIS_TYPE":0,"CLASSIFICATION_TYPE":"U","NORAD_CAT_ID":65231,"ELEMENT_SET_NO":999,"REV_AT_EPOCH":2937,"BSTAR":0.00010392,"MEAN_MOTION_DOT":5.9e-7,"MEAN_MOTION_DDOT":0},{"OBJECT_NAME":"HULIANWANG DIGUI-72","OBJECT_ID":"2025-178E","EPOCH":"2026-03-26T12:37:29.448192","MEAN_MOTION":13.24410232,"ECCENTRICITY":0.0001981,"INCLINATION":86.4983,"RA_OF_ASC_NODE":41.3856,"ARG_OF_PERICENTER":72.4334,"MEAN_ANOMALY":287.7016,"EPHEMERIS_TYPE":0,"CLASSIFICATION_TYPE":"U","NORAD_CAT_ID":65232,"ELEMENT_SET_NO":999,"REV_AT_EPOCH":2937,"BSTAR":0.00014038,"MEAN_MOTION_DOT":7.5e-7,"MEAN_MOTION_DDOT":0},{"OBJECT_NAME":"HULIANWANG DIGUI-73","OBJECT_ID":"2025-187A","EPOCH":"2026-03-26T12:21:25.770240","MEAN_MOTION":13.29322527,"ECCENTRICITY":8.8e-5,"INCLINATION":50.004,"RA_OF_ASC_NODE":142.3775,"ARG_OF_PERICENTER":218.4061,"MEAN_ANOMALY":141.6748,"EPHEMERIS_TYPE":0,"CLASSIFICATION_TYPE":"U","NORAD_CAT_ID":65305,"ELEMENT_SET_NO":999,"REV_AT_EPOCH":2870,"BSTAR":7.1178e-5,"MEAN_MOTION_DOT":-9.1e-7,"MEAN_MOTION_DDOT":0},{"OBJECT_NAME":"HULIANWANG DIGUI-74","OBJECT_ID":"2025-187B","EPOCH":"2026-03-26T11:57:20.225664","MEAN_MOTION":13.29323497,"ECCENTRICITY":8.92e-5,"INCLINATION":50.0083,"RA_OF_ASC_NODE":142.3634,"ARG_OF_PERICENTER":219.0843,"MEAN_ANOMALY":140.9965,"EPHEMERIS_TYPE":0,"CLASSIFICATION_TYPE":"U","NORAD_CAT_ID":65306,"ELEMENT_SET_NO":999,"REV_AT_EPOCH":2870,"BSTAR":6.7513e-5,"MEAN_MOTION_DOT":-9.3e-7,"MEAN_MOTION_DDOT":0},{"OBJECT_NAME":"HULIANWANG DIGUI-75","OBJECT_ID":"2025-187C","EPOCH":"2026-03-26T11:33:23.503392","MEAN_MOTION":13.29322246,"ECCENTRICITY":8.78e-5,"INCLINATION":50.0075,"RA_OF_ASC_NODE":142.2639,"ARG_OF_PERICENTER":219.1065,"MEAN_ANOMALY":140.9744,"EPHEMERIS_TYPE":0,"CLASSIFICATION_TYPE":"U","NORAD_CAT_ID":65307,"ELEMENT_SET_NO":999,"REV_AT_EPOCH":2870,"BSTAR":4.6654e-5,"MEAN_MOTION_DOT":-1.02e-6,"MEAN_MOTION_DDOT":0},{"OBJECT_NAME":"HULIANWANG DIGUI-76","OBJECT_ID":"2025-187D","EPOCH":"2026-03-26T11:09:36.609120","MEAN_MOTION":13.29323748,"ECCENTRICITY":8.95e-5,"INCLINATION":49.9999,"RA_OF_ASC_NODE":142.7048,"ARG_OF_PERICENTER":214.6341,"MEAN_ANOMALY":145.4473,"EPHEMERIS_TYPE":0,"CLASSIFICATION_TYPE":"U","NORAD_CAT_ID":65308,"ELEMENT_SET_NO":999,"REV_AT_EPOCH":2869,"BSTAR":5.017e-5,"MEAN_MOTION_DOT":-1.01e-6,"MEAN_MOTION_DDOT":0},{"OBJECT_NAME":"HULIANWANG DIGUI-77","OBJECT_ID":"2025-187E","EPOCH":"2026-03-26T12:45:37.355040","MEAN_MOTION":13.2932265,"ECCENTRICITY":0.0001088,"INCLINATION":50.0033,"RA_OF_ASC_NODE":142.4505,"ARG_OF_PERICENTER":216.6076,"MEAN_ANOMALY":143.4722,"EPHEMERIS_TYPE":0,"CLASSIFICATION_TYPE":"U","NORAD_CAT_ID":65309,"ELEMENT_SET_NO":999,"REV_AT_EPOCH":2870,"BSTAR":5.7662e-5,"MEAN_MOTION_DOT":-9.7e-7,"MEAN_MOTION_DDOT":0},{"OBJECT_NAME":"HULIANWANG DIGUI-78","OBJECT_ID":"2025-187F","EPOCH":"2026-03-26T11:45:29.298816","MEAN_MOTION":13.29321986,"ECCENTRICITY":8.73e-5,"INCLINATION":50.0099,"RA_OF_ASC_NODE":142.3492,"ARG_OF_PERICENTER":218.2347,"MEAN_ANOMALY":141.8463,"EPHEMERIS_TYPE":0,"CLASSIFICATION_TYPE":"U","NORAD_CAT_ID":65310,"ELEMENT_SET_NO":999,"REV_AT_EPOCH":2870,"BSTAR":6.3155e-5,"MEAN_MOTION_DOT":-9.5e-7,"MEAN_MOTION_DDOT":0},{"OBJECT_NAME":"HULIANWANG DIGUI-79","OBJECT_ID":"2025-187G","EPOCH":"2026-03-26T11:21:09.476640","MEAN_MOTION":13.29323832,"ECCENTRICITY":8.74e-5,"INCLINATION":50.0029,"RA_OF_ASC_NODE":142.7971,"ARG_OF_PERICENTER":219.3129,"MEAN_ANOMALY":140.7679,"EPHEMERIS_TYPE":0,"CLASSIFICATION_TYPE":"U","NORAD_CAT_ID":65311,"ELEMENT_SET_NO":999,"REV_AT_EPOCH":2869,"BSTAR":4.7447e-5,"MEAN_MOTION_DOT":-1.02e-6,"MEAN_MOTION_DDOT":0},{"OBJECT_NAME":"HULIANWANG DIGUI-80","OBJECT_ID":"2025-187H","EPOCH":"2026-03-26T12:33:32.997312","MEAN_MOTION":13.29322451,"ECCENTRICITY":0.0001063,"INCLINATION":50.0019,"RA_OF_ASC_NODE":142.383,"ARG_OF_PERICENTER":214.9632,"MEAN_ANOMALY":145.117,"EPHEMERIS_TYPE":0,"CLASSIFICATION_TYPE":"U","NORAD_CAT_ID":65312,"ELEMENT_SET_NO":999,"REV_AT_EPOCH":2870,"BSTAR":6.6588e-5,"MEAN_MOTION_DOT":-9.3e-7,"MEAN_MOTION_DDOT":0}]
