HULIANWANG DIGUI-65     
1 65171U 25174H   26085.52587859  .00000026  00000+0  26548-4 0  9995
2 65171  86.4818 279.8065 0001500 100.5436 259.5867 13.24413228 29844
HULIANWANG DIGUI-66     
1 65172U 25174J   26085.51835118  .00000096  00000+0  19039-3 0  9992
2 65172  86.4854 279.8824 0001595  99.7290 260.4024 13.24413741 29845
HULIANWANG DIGUI-67     
1 65173U 25174K   26085.53349950  .00000046  00000+0  72291-4 0  9994
2 65173  86.4865 279.9133 0001547  99.5522 260.5787 13.24412885 29817
HULIANWANG DIGUI-68     
1 65228U 25178A   26085.48047884  .00000033  00000+0  42696-4 0  9996
2 65228  86.4982  41.4248 0001978  72.0824 288.0526 13.24408783 29364
HULIANWANG DIGUI-69     
1 65229U 25178B   26085.47327711  .00000045  00000+0  71479-4 0  9990
2 65229  86.5002  41.4663 0001919  74.6310 285.5036 13.24411580 29360
HULIANWANG DIGUI-70     
1 65230U 25178C   26085.54121933  .00000062  00000+0  11087-3 0  9995
2 65230  86.4941  41.2998 0001966  71.3464 288.7884 13.24411110 29374
HULIANWANG DIGUI-71     
1 65231U 25178D   26085.53363326  .00000059  00000+0  10392-3 0  9993
2 65231  86.5000  41.4284 0001960  72.0582 288.0766 13.24410809 29371
HULIANWANG DIGUI-72     
1 65232U 25178E   26085.52603528  .00000075  00000+0  14038-3 0  9993
2 65232  86.4983  41.3856 0001981  72.4334 287.7016 13.24410232 29371
HULIANWANG DIGUI-73     
1 65305U 25187A   26085.51488160 -.00000091  00000+0  71178-4 0  9994
2 65305  50.0040 142.3775 0000880 218.4061 141.6748 13.29322527 28701
HULIANWANG DIGUI-74     
1 65306U 25187B   26085.49815076 -.00000093  00000+0  67513-4 0  9992
2 65306  50.0083 142.3634 0000892 219.0843 140.9965 13.29323497 28701
HULIANWANG DIGUI-75     
1 65307U 25187C   26085.48152203 -.00000102  00000+0  46654-4 0  9992
2 65307  50.0075 142.2639 0000878 219.1065 140.9744 13.29322246 28704
HULIANWANG DIGUI-76     
1 65308U 25187D   26085.46500705 -.00000101  00000+0  50170-4 0  9992
2 65308  49.9999 142.7048 0000895 214.6341 145.4473 13.29323748 28697
HULIANWANG DIGUI-77     
1 65309U 25187E   26085.53168235 -.00000097  00000+0  57662-4 0  9996
2 65309  50.0033 142.4505 0001088 216.6076 143.4722 13.29322650 28705
HULIANWANG DIGUI-78     
1 65310U 25187F   26085.48992244 -.00000095  00000+0  63155-4 0  9999
2 65310  50.0099 142.3492 0000873 218.2347 141.8463 13.29321986 28708
HULIANWANG DIGUI-79     
1 65311U 25187G   26085.47302635 -.00000102  00000+0  47447-4 0  9993
2 65311  50.0029 142.7971 0000874 219.3129 140.7679 13.29323832 28696
HULIANWANG DIGUI-80     
1 65312U 25187H   26085.52329858 -.00000093  00000+0  66588-4 0  9992
2 65312  50.0019 142.3830 0001063 214.9632 145.1170 13.29322451 28700
